[{"OBJECT_NAME":"STARLINK-34890","OBJECT_ID":"2025-216AC","EPOCH":"2026-03-09T23:25:16.027680","MEAN_MOTION":15.30175348,"ECCENTRICITY":0.00016015,"INCLINATION":53.1604,"RA_OF_ASC_NODE":331.119,"ARG_OF_PERICENTER":92.1194,"MEAN_ANOMALY":267.999,"EPHEMERIS_TYPE":0,"CLASSIFICATION_TYPE":"U","NORAD_CAT_ID":65760,"ELEMENT_SET_NO":999,"REV_AT_EPOCH":2658,"BSTAR":0.0011263314,"MEAN_MOTION_DOT":0.00033123,"MEAN_MOTION_DDOT":0},{"OBJECT_NAME":"OBJECT L","OBJECT_ID":"2024-024L","EPOCH":"2026-03-09T22:36:05.522976","MEAN_MOTION":15.29373491,"ECCENTRICITY":0.00073185,"INCLINATION":97.3169,"RA_OF_ASC_NODE":137.7038,"ARG_OF_PERICENTER":167.6369,"MEAN_ANOMALY":192.5052,"EPHEMERIS_TYPE":0,"CLASSIFICATION_TYPE":"U","NORAD_CAT_ID":58927,"ELEMENT_SET_NO":999,"REV_AT_EPOCH":9318,"BSTAR":0.00043092344,"MEAN_MOTION_DOT":0.00012217,"MEAN_MOTION_DDOT":0}]
